IRIDIUM 144             
1 43249U 18030A   24182.84744782 -.00000007  00000+0 -94413-5 0  9999
2 43249  86.3973 229.7543 0002497  92.1382 268.0099 14.34217433327489
IRIDIUM 149             
1 43250U 18030B   24182.85378990  .00000014  00000+0 -21708-5 0  9990
2 43250  86.3968 229.7269 0002460  90.1501 269.9976 14.34217687327486
IRIDIUM 157             
1 43251U 18030C   24182.59374237  .00000076  00000+0  20016-4 0  9999
2 43251  86.3970 229.8727 0002070  89.5609 270.5824 14.34218111327425
IRIDIUM 140             
1 43252U 18030D   24182.61276207  .00000455  00000+0  15535-3 0  9991
2 43252  86.3972 229.8789 0002696  98.2476 261.9025 14.34216348327482
IRIDIUM 145             
1 43253U 18030E   24182.60008710  .00000029  00000+0  33014-5 0  9994
2 43253  86.3971 229.8584 0002745  88.9671 271.1840 14.34217701327418
IRIDIUM 146             
1 43254U 18030F   24182.65082672  .00000043  00000+0  81499-5 0  9995
2 43254  86.3970 229.8519 0002494  90.7840 269.3642 14.34217954327437
IRIDIUM 148             
1 43255U 18030G   24182.54934402  .00000087  00000+0  23978-4 0  9996
2 43255  86.3971 229.9264 0002269  87.8402 272.3053 14.34218439327459
IRIDIUM 142             
1 43256U 18030H   24182.58740061  .00000077  00000+0  20302-4 0  9994
2 43256  86.3968 229.8255 0002656  89.3410 270.8090 14.34218286327422
